[
    {
      "street": "Engertstraße",
      "street_number": "",
      "description": "Höhe Naumburger Straße/Wendeschleife Straßenbahn",
      "borough": "Südwest",
      "postcode": "04229",
      "district": "Plagwitz",
      "districtId": "plagwitz"
    },
    {
      "street": "Erich-Zeigner-Allee",
      "street_number": 20,
      "description": "gegenüber Kirche",
      "borough": "Südwest",
      "postcode": "04229",
      "district": "Plagwitz",
      "districtId": "plagwitz"
    },
    {
      "street": "Erich-Zeigner-Allee",
      "street_number": 69,
      "description": "Höhe Gewerbeobjekt",
      "borough": "Südwest",
      "postcode": "04229",
      "district": "Plagwitz",
      "districtId": "plagwitz"
    },
    {
      "street": "Erich-Zeigner-Allee",
      "street_number": 91,
      "description": "",
      "borough": "Südwest",
      "postcode": "04229",
      "district": "Plagwitz",
      "districtId": "plagwitz"
    },
    {
      "street": "Gießerstraße",
      "street_number": "",
      "description": "Höhe Baumarkt",
      "borough": "Südwest",
      "postcode": "04229",
      "district": "Plagwitz",
      "districtId": "plagwitz"
    },
    {
      "street": "Markranstädter Straße",
      "street_number": "",
      "description": "Ecke Zschochersche Straße",
      "borough": "Südwest",
      "postcode": "04229",
      "district": "Plagwitz",
      "districtId": "plagwitz"
    },
    {
      "street": "Diezmannstraße",
      "street_number": 61,
      "description": "im Hof der Meyerschen Häuser",
      "borough": "Südwest",
      "postcode": "04207",
      "district": "Kleinzschocher",
      "districtId": "kleinzschocher"
    },
    {
      "street": "Gärtnerstraße",
      "street_number": 36,
      "description": "WSH (mit Altglas-Annahme) Ecke Brünner Straße",
      "borough": "Südwest",
      "postcode": "04207",
      "district": "Kleinzschocher",
      "districtId": "kleinzschocher"
    },
    {
      "street": "Herrmann-Meyer-Straße",
      "street_number": "55/57",
      "description": "im Hof der Meyerschen Häuser",
      "borough": "Südwest",
      "postcode": "04207",
      "district": "Kleinzschocher",
      "districtId": "kleinzschocher"
    },
    {
      "street": "Nikolai-Rumjanzew-Straße",
      "street_number": "",
      "description": "Höhe Straße am Park",
      "borough": "Südwest",
      "postcode": "04207",
      "district": "Kleinzschocher",
      "districtId": "kleinzschocher"
    },
    {
      "street": "Ratzelstraße",
      "street_number": 59,
      "description": "im Hof der Meyerschen Häuser",
      "borough": "Südwest",
      "postcode": "04207",
      "district": "Kleinzschocher",
      "districtId": "kleinzschocher"
    },
    {
      "street": "Ratzelstraße",
      "street_number": 91,
      "description": "im Hof der Meyerschen Häuser",
      "borough": "Südwest",
      "postcode": "04207",
      "district": "Kleinzschocher",
      "districtId": "kleinzschocher"
    },
    {
      "street": "Dieskaustraße",
      "street_number": "",
      "description": "Ecke Schwartzestraße",
      "borough": "Südwest",
      "postcode": "04229",
      "district": "Kleinzschocher",
      "districtId": "kleinzschocher"
    },
    {
      "street": "Dieskaustraße",
      "street_number": 133,
      "description": "WSH (mit Altglas-Annahme)",
      "borough": "Südwest",
      "postcode": "04229",
      "district": "Kleinzschocher",
      "districtId": "kleinzschocher"
    },
    {
      "street": "Kantatenweg",
      "street_number": "",
      "description": "Richtung Antonienstraße",
      "borough": "Südwest",
      "postcode": "04229",
      "district": "Kleinzschocher",
      "districtId": "kleinzschocher"
    },
    {
      "street": "Luckaer Straße",
      "street_number": "",
      "description": "Höhe Kulkwitzer Straße",
      "borough": "Südwest",
      "postcode": "04229",
      "district": "Kleinzschocher",
      "districtId": "kleinzschocher"
    },
    {
      "street": "Windorfer Straße",
      "street_number": "",
      "description": "Dieskaustraße 111, neben Tankstelle",
      "borough": "Südwest",
      "postcode": "04229",
      "district": "Kleinzschocher",
      "districtId": "kleinzschocher"
    },
    {
      "street": "Arthur-Nagel-Straße",
      "street_number": "",
      "description": "Höhe Kloßstraße",
      "borough": "Südwest",
      "postcode": "04249",
      "district": "Großzschocher",
      "districtId": "großzschocher"
    },
    {
      "street": "Arthur-Nagel-Straße",
      "street_number": 7,
      "description": "Höhe Otto-Militzer-Straße/Parktasche",
      "borough": "Südwest",
      "postcode": "04249",
      "district": "Großzschocher",
      "districtId": "großzschocher"
    },
    {
      "street": "Brauereistraße",
      "street_number": "",
      "description": "Höhe Einkaufsmarkt",
      "borough": "Südwest",
      "postcode": "04249",
      "district": "Großzschocher",
      "districtId": "großzschocher"
    },
    {
      "street": "Dieskaustraße",
      "street_number": 295,
      "description": "gegenüber auf der Freifläche",
      "borough": "Südwest",
      "postcode": "04249",
      "district": "Großzschocher",
      "districtId": "großzschocher"
    },
    {
      "street": "Eichelbaumstraße",
      "street_number": 15,
      "description": "Kaufhalle",
      "borough": "Südwest",
      "postcode": "04249",
      "district": "Großzschocher",
      "districtId": "großzschocher"
    },
    {
      "street": "Kloßstraße",
      "street_number": "",
      "description": "Höhe Bismarckstraße/Parkplatz",
      "borough": "Südwest",
      "postcode": "04249",
      "district": "Großzschocher",
      "districtId": "großzschocher"
    },
    {
      "street": "Neubauernstraße",
      "street_number": 9,
      "description": "Rapsweg/Neubauernstraße",
      "borough": "Südwest",
      "postcode": "04249",
      "district": "Großzschocher",
      "districtId": "großzschocher"
    },
    {
      "street": "Raiffeisenstraße",
      "street_number": "",
      "description": "gegenüber Bushaltestelle",
      "borough": "Südwest",
      "postcode": "04249",
      "district": "Großzschocher",
      "districtId": "großzschocher"
    },
    {
      "street": "Dieskaustraße",
      "street_number": 375,
      "description": "Schlippe/Gartenverein",
      "borough": "Südwest",
      "postcode": "04249",
      "district": "Knautkleeberg-Knauthain",
      "districtId": "knautkleeberg-knauthain"
    },
    {
      "street": "Dieskaustraße",
      "street_number": 483,
      "description": "An Tankstelle",
      "borough": "Südwest",
      "postcode": "04249",
      "district": "Knautkleeberg-Knauthain",
      "districtId": "knautkleeberg-knauthain"
    },
    {
      "street": "Seumestraße",
      "street_number": 20,
      "description": "Ecke Göhrenzer Straße",
      "borough": "Südwest",
      "postcode": "04249",
      "district": "Knautkleeberg-Knauthain",
      "districtId": "knautkleeberg-knauthain"
    },
    {
      "street": "Wildentensteig",
      "street_number": "",
      "description": "am Gartenverein, 60 m hinter Kreuzung",
      "borough": "Südwest",
      "postcode": "04249",
      "district": "Knautkleeberg-Knauthain",
      "districtId": "knautkleeberg-knauthain"
    },
    {
      "street": "Erikenstraße",
      "street_number": 32,
      "description": "zwischen Birkenweg und Gartenweg",
      "borough": "Südwest",
      "postcode": "04249",
      "district": "Hartmannsdorf-Knautnaundorf",
      "districtId": "hartmannsdorf-knautnaundorf"
    },
    {
      "street": "Erikenstraße",
      "street_number": 46,
      "description": "ggü.",
      "borough": "Südwest",
      "postcode": "04249",
      "district": "Hartmannsdorf-Knautnaundorf",
      "districtId": "hartmannsdorf-knautnaundorf"
    },
    {
      "street": "Rehbacher Anger",
      "street_number": "",
      "description": "neben Haltestellenhäuschen",
      "borough": "Südwest",
      "postcode": "04249",
      "district": "Hartmannsdorf-Knautnaundorf",
      "districtId": "hartmannsdorf-knautnaundorf"
    },
    {
      "street": "Am Schwalbennest",
      "street_number": "",
      "description": "Parkplatz Einkaufsmarkt, Lützner Straße 396",
      "borough": "West",
      "postcode": "04205",
      "district": "Schönau",
      "districtId": "schoenau"
    },
    {
      "street": "Am Schwalbennest",
      "street_number": 16,
      "description": "Standort in Freifläche",
      "borough": "West",
      "postcode": "04205",
      "district": "Schönau",
      "districtId": "schoenau"
    },
    {
      "street": "Jenaer Straße",
      "street_number": "",
      "description": "Höhe Meininger Ring",
      "borough": "West",
      "postcode": "04205",
      "district": "Schönau",
      "districtId": "schoenau"
    },
    {
      "street": "Jenaer Straße",
      "street_number": "",
      "description": "Höhe Arnstädter Kehre, ggü. Parkplatz",
      "borough": "West",
      "postcode": "04205",
      "district": "Schönau",
      "districtId": "schoenau"
    },
    {
      "street": "Lindennaundorfer Weg",
      "street_number": 18,
      "description": "Parkplatz zwischen Lindennaundorfer Weg 21 und Frankenheimer Weg 30",
      "borough": "West",
      "postcode": "04205",
      "district": "Schönau",
      "districtId": "schoenau"
    },
    {
      "street": "Schönauer Ring",
      "street_number": "",
      "description": "Höhe Dölziger Weg",
      "borough": "West",
      "postcode": "04205",
      "district": "Schönau",
      "districtId": "schoenau"
    },
    {
      "street": "Schönauer Ring",
      "street_number": 1,
      "description": "Höhe Einkaufsmarkt, Einmündung Schönauer Lachen",
      "borough": "West",
      "postcode": "04205",
      "district": "Schönau",
      "districtId": "schoenau"
    },
    {
      "street": "Suhler Straße",
      "street_number": "",
      "description": "Höhe Einkaufsmarkt, ggü. Nr. 57",
      "borough": "West",
      "postcode": "04205",
      "district": "Schönau",
      "districtId": "schoenau"
    },
    {
      "street": "Weimaer Straße",
      "street_number": "",
      "description": "ggü. Eisenberger Ring 8",
      "borough": "West",
      "postcode": "04205",
      "district": "Schönau",
      "districtId": "schoenau"
    },
    {
      "street": "Alte Salzstraße",
      "street_number": 52,
      "description": "Höhe Grünauer Allee/Parkplatz",
      "borough": "West",
      "postcode": "04209",
      "district": "Grünau-Ost",
      "districtId": "gruenau-ost"
    },
    {
      "street": "Asternweg",
      "street_number": 44,
      "description": "Höhe Rosenweg; Container in Steineinfassung",
      "borough": "West",
      "postcode": "04209",
      "district": "Grünau-Ost",
      "districtId": "gruenau-ost"
    },
    {
      "street": "Dahlienstraße",
      "street_number": 101,
      "description": "",
      "borough": "West",
      "postcode": "04209",
      "district": "Grünau-Ost",
      "districtId": "gruenau-ost"
    },
    {
      "street": "Dahlienstraße",
      "street_number": 31,
      "description": "",
      "borough": "West",
      "postcode": "04209",
      "district": "Grünau-Ost",
      "districtId": "gruenau-ost"
    },
    {
      "street": "Gärtnerstraße",
      "street_number": 155,
      "description": "Parkplatz",
      "borough": "West",
      "postcode": "04209",
      "district": "Grünau-Ost",
      "districtId": "gruenau-ost"
    },
    {
      "street": "Gärtnerstraße",
      "street_number": 41,
      "description": "Parkplatz",
      "borough": "West",
      "postcode": "04209",
      "district": "Grünau-Ost",
      "districtId": "gruenau-ost"
    },
    {
      "street": "Grünauer Allee",
      "street_number": 37,
      "description": "am Sportplatz, Straße am Park 3",
      "borough": "West",
      "postcode": "04209",
      "district": "Grünau-Ost",
      "districtId": "gruenau-ost"
    },
    {
      "street": "Nelkenweg",
      "street_number": 15,
      "description": "neben Parkhaus",
      "borough": "West",
      "postcode": "04209",
      "district": "Grünau-Ost",
      "districtId": "gruenau-ost"
    },
    {
      "street": "Rosenweg",
      "street_number": 20,
      "description": "Parktasche",
      "borough": "West",
      "postcode": "04209",
      "district": "Grünau-Ost",
      "districtId": "gruenau-ost"
    },
    {
      "street": "Straße am Park",
      "street_number": 4,
      "description": "Höhe Gärtnerstraße",
      "borough": "West",
      "postcode": "04209",
      "district": "Grünau-Ost",
      "districtId": "gruenau-ost"
    },
    {
      "street": "Weißdornstraße",
      "street_number": "",
      "description": "Sackgasse/Alte Salzstraße 100",
      "borough": "West",
      "postcode": "04209",
      "district": "Grünau-Ost",
      "districtId": "gruenau-ost"
    },
    {
      "street": "Weißdornstraße",
      "street_number": 84,
      "description": "",
      "borough": "West",
      "postcode": "04209",
      "district": "Grünau-Ost",
      "districtId": "gruenau-ost"
    },
    {
      "street": "Alte Salzstraße",
      "street_number": 183,
      "description": "Höhe Potschkaustraße",
      "borough": "West",
      "postcode": "04209",
      "district": "Grünau-Mitte",
      "districtId": "gruenau-mitte"
    },
    {
      "street": "Am Kirschberg",
      "street_number": 13,
      "description": "Parkplatz",
      "borough": "West",
      "postcode": "04209",
      "district": "Grünau-Mitte",
      "districtId": "gruenau-mitte"
    },
    {
      "street": "Breisgaustraße",
      "street_number": 19,
      "description": "",
      "borough": "West",
      "postcode": "04209",
      "district": "Grünau-Mitte",
      "districtId": "gruenau-mitte"
    },
    {
      "street": "Breisgaustraße",
      "street_number": 29,
      "description": "",
      "borough": "West",
      "postcode": "04209",
      "district": "Grünau-Mitte",
      "districtId": "gruenau-mitte"
    },
    {
      "street": "Breisgaustraße",
      "street_number": 43,
      "description": "ggü. Parkhaus",
      "borough": "West",
      "postcode": "04209",
      "district": "Grünau-Mitte",
      "districtId": "gruenau-mitte"
    },
    {
      "street": "Breisgaustraße",
      "street_number": 47,
      "description": "Parkplatz",
      "borough": "West",
      "postcode": "04209",
      "district": "Grünau-Mitte",
      "districtId": "gruenau-mitte"
    },
    {
      "street": "Breisgaustraße",
      "street_number": 79,
      "description": "ggü.",
      "borough": "West",
      "postcode": "04209",
      "district": "Grünau-Mitte",
      "districtId": "gruenau-mitte"
    },
    {
      "street": "Heilbronner Straße",
      "street_number": 5,
      "description": "",
      "borough": "West",
      "postcode": "04209",
      "district": "Grünau-Mitte",
      "districtId": "gruenau-mitte"
    },
    {
      "street": "Karlsruher Straße",
      "street_number": 31,
      "description": "Seniorenheim",
      "borough": "West",
      "postcode": "04209",
      "district": "Grünau-Mitte",
      "districtId": "gruenau-mitte"
    },
    {
      "street": "Ludwigsburger Straße",
      "street_number": 16,
      "description": "",
      "borough": "West",
      "postcode": "04209",
      "district": "Grünau-Mitte",
      "districtId": "gruenau-mitte"
    },
    {
      "street": "Mannheimer Straße",
      "street_number": 130,
      "description": "Höhe Alte Salzstraße",
      "borough": "West",
      "postcode": "04209",
      "district": "Grünau-Mitte",
      "districtId": "gruenau-mitte"
    },
    {
      "street": "Mannheimer Straße",
      "street_number": 36,
      "description": "zwischen Nr. 36 und 96",
      "borough": "West",
      "postcode": "04209",
      "district": "Grünau-Mitte",
      "districtId": "gruenau-mitte"
    },
    {
      "street": "Offenburger Straße",
      "street_number": 11,
      "description": "",
      "borough": "West",
      "postcode": "04209",
      "district": "Grünau-Mitte",
      "districtId": "gruenau-mitte"
    },
    {
      "street": "Potschkaustraße",
      "street_number": 22,
      "description": "",
      "borough": "West",
      "postcode": "04209",
      "district": "Grünau-Mitte",
      "districtId": "gruenau-mitte"
    },
    {
      "street": "Ringstraße",
      "street_number": 1,
      "description": "",
      "borough": "West",
      "postcode": "04209",
      "district": "Grünau-Mitte",
      "districtId": "gruenau-mitte"
    },
    {
      "street": "Ringstraße",
      "street_number": 115,
      "description": "",
      "borough": "West",
      "postcode": "04209",
      "district": "Grünau-Mitte",
      "districtId": "gruenau-mitte"
    },
    {
      "street": "Ringstraße",
      "street_number": 171,
      "description": "Höhe Breisgaustraße",
      "borough": "West",
      "postcode": "04209",
      "district": "Grünau-Mitte",
      "districtId": "gruenau-mitte"
    },
    {
      "street": "Ringstraße",
      "street_number": 35,
      "description": "",
      "borough": "West",
      "postcode": "04209",
      "district": "Grünau-Mitte",
      "districtId": "gruenau-mitte"
    },
    {
      "street": "Ringstraße",
      "street_number": 59,
      "description": "",
      "borough": "West",
      "postcode": "04209",
      "district": "Grünau-Mitte",
      "districtId": "gruenau-mitte"
    },
    {
      "street": "Bamberger Straße",
      "street_number": 64,
      "description": "Höhe Lichtenfelser Straße",
      "borough": "West",
      "postcode": "04207",
      "district": "Grünau-Siedlung",
      "districtId": "gruenau-siedlung"
    },
    {
      "street": "Brambacher Straße",
      "street_number": 41,
      "description": "",
      "borough": "West",
      "postcode": "04207",
      "district": "Grünau-Siedlung",
      "districtId": "gruenau-siedlung"
    },
    {
      "street": "Brambacher Straße",
      "street_number": 87,
      "description": "Parkplatz",
      "borough": "West",
      "postcode": "04207",
      "district": "Grünau-Siedlung",
      "districtId": "gruenau-siedlung"
    },
    {
      "street": "Krakauer Straße",
      "street_number": 2,
      "description": "WSH (mit Altglas-Annahme) Ecke Ratzelstraße",
      "borough": "West",
      "postcode": "04207",
      "district": "Grünau-Siedlung",
      "districtId": "gruenau-siedlung"
    },
    {
      "street": "Rothenburger Straße",
      "street_number": 23,
      "description": "Höhe Ratzelstraße",
      "borough": "West",
      "postcode": "04207",
      "district": "Grünau-Siedlung",
      "districtId": "gruenau-siedlung"
    },
    {
      "street": "Am Grund",
      "street_number": 2,
      "description": "",
      "borough": "West",
      "postcode": "04207",
      "district": "Lausen-Grünau",
      "districtId": "lausen-gruenau"
    },
    {
      "street": "Am Grund",
      "street_number": 70,
      "description": "Höhe Zschampertaue",
      "borough": "West",
      "postcode": "04207",
      "district": "Lausen-Grünau",
      "districtId": "lausen-gruenau"
    },
    {
      "street": "An der Kotsche",
      "street_number": 15,
      "description": "Parktasche",
      "borough": "West",
      "postcode": "04207",
      "district": "Lausen-Grünau",
      "districtId": "lausen-gruenau"
    },
    {
      "street": "An der Lautsche",
      "street_number": 26,
      "description": "",
      "borough": "West",
      "postcode": "04207",
      "district": "Lausen-Grünau",
      "districtId": "lausen-gruenau"
    },
    {
      "street": "Basteistraße",
      "street_number": 15,
      "description": "Höhe Liliensteinstraße",
      "borough": "West",
      "postcode": "04207",
      "district": "Lausen-Grünau",
      "districtId": "lausen-gruenau"
    },
    {
      "street": "Binzer Straße",
      "street_number": 14,
      "description": "78. Grundschule",
      "borough": "West",
      "postcode": "04207",
      "district": "Lausen-Grünau",
      "districtId": "lausen-gruenau"
    },
    {
      "street": "Brackestraße",
      "street_number": 31,
      "description": "ggü.",
      "borough": "West",
      "postcode": "04207",
      "district": "Lausen-Grünau",
      "districtId": "lausen-gruenau"
    },
    {
      "street": "Brackestraße",
      "street_number": 41,
      "description": "Höhe Seffnerstraße",
      "borough": "West",
      "postcode": "04207",
      "district": "Lausen-Grünau",
      "districtId": "lausen-gruenau"
    },
    {
      "street": "Deiwitzweg",
      "street_number": 3,
      "description": "",
      "borough": "West",
      "postcode": "04207",
      "district": "Lausen-Grünau",
      "districtId": "lausen-gruenau"
    },
    {
      "street": "Königsteinstraße",
      "street_number": 13,
      "description": "Parktasche",
      "borough": "West",
      "postcode": "04207",
      "district": "Lausen-Grünau",
      "districtId": "lausen-gruenau"
    },
    {
      "street": "Königsteinstraße",
      "street_number": 43,
      "description": "",
      "borough": "West",
      "postcode": "04207",
      "district": "Lausen-Grünau",
      "districtId": "lausen-gruenau"
    },
    {
      "street": "Liliensteinstraße",
      "street_number": 11,
      "description": "",
      "borough": "West",
      "postcode": "04207",
      "district": "Lausen-Grünau",
      "districtId": "lausen-gruenau"
    },
    {
      "street": "Pfaffensteinstraße",
      "street_number": 6,
      "description": "Höhe Königsteinstraße, Parkplatz",
      "borough": "West",
      "postcode": "04207",
      "district": "Lausen-Grünau",
      "districtId": "lausen-gruenau"
    },
    {
      "street": "Plovdiver Straße",
      "street_number": "",
      "description": "Parkplatz Miltitzer Straße 42d",
      "borough": "West",
      "postcode": "04207",
      "district": "Lausen-Grünau",
      "districtId": "lausen-gruenau"
    },
    {
      "street": "Salzweg",
      "street_number": "",
      "description": "80 m hinter Kreuzung Staffelsteinstraße",
      "borough": "West",
      "postcode": "04207",
      "district": "Lausen-Grünau",
      "districtId": "lausen-gruenau"
    },
    {
      "street": "Schrammsteinstraße",
      "street_number": "",
      "description": "Höhe Basteistraße/Parktasche",
      "borough": "West",
      "postcode": "04207",
      "district": "Lausen-Grünau",
      "districtId": "lausen-gruenau"
    },
    {
      "street": "Selliner Straße",
      "street_number": 21,
      "description": "Parkplatz",
      "borough": "West",
      "postcode": "04207",
      "district": "Lausen-Grünau",
      "districtId": "lausen-gruenau"
    },
    {
      "street": "Zingster Straße",
      "street_number": "",
      "description": "Nähe Straße am See an Litfaßsäule",
      "borough": "West",
      "postcode": "04207",
      "district": "Lausen-Grünau",
      "districtId": "lausen-gruenau"
    },
    {
      "street": "Zingster Straße",
      "street_number": 30,
      "description": "Ecke Zingster Straße am Schulhof",
      "borough": "West",
      "postcode": "04207",
      "district": "Lausen-Grünau",
      "districtId": "lausen-gruenau"
    },
    {
      "street": "Zschampertaue",
      "street_number": 18,
      "description": "",
      "borough": "West",
      "postcode": "04207",
      "district": "Lausen-Grünau",
      "districtId": "lausen-gruenau"
    },
    {
      "street": "Zur Heide",
      "street_number": "",
      "description": "Höhe Regenbogen",
      "borough": "West",
      "postcode": "04207",
      "district": "Lausen-Grünau",
      "districtId": "lausen-gruenau"
    },
    {
      "street": "Am kleinen Feld",
      "street_number": 50,
      "description": "Höhe Neue Leipziger Straße",
      "borough": "West",
      "postcode": "04205",
      "district": "Grünau-Nord",
      "districtId": "gruenau-Nord"
    },
    {
      "street": "Jupiterstraße",
      "street_number": 2,
      "description": "Höhe Wegastraße",
      "borough": "West",
      "postcode": "04205",
      "district": "Grünau-Nord",
      "districtId": "gruenau-Nord"
    },
    {
      "street": "Jupiterstraße",
      "street_number": 42,
      "description": "",
      "borough": "West",
      "postcode": "04205",
      "district": "Grünau-Nord",
      "districtId": "gruenau-Nord"
    },
    {
      "street": "Neue Leipziger Straße",
      "street_number": 1,
      "description": "Höhe Am kleinem Feld",
      "borough": "West",
      "postcode": "04205",
      "district": "Grünau-Nord",
      "districtId": "gruenau-Nord"
    },
    {
      "street": "Plovdiver Straße",
      "street_number": 30,
      "description": "Höhe Jupiterstraße/Parktasche",
      "borough": "West",
      "postcode": "04205",
      "district": "Grünau-Nord",
      "districtId": "gruenau-Nord"
    },
    {
      "street": "Plovdiver Straße",
      "street_number": 82,
      "description": "Parktasche",
      "borough": "West",
      "postcode": "04205",
      "district": "Grünau-Nord",
      "districtId": "gruenau-Nord"
    },
    {
      "street": "Saturnstraße",
      "street_number": 27,
      "description": "auf Marsweg",
      "borough": "West",
      "postcode": "04205",
      "district": "Grünau-Nord",
      "districtId": "gruenau-Nord"
    },
    {
      "street": "Saturnstraße",
      "street_number": 57,
      "description": "",
      "borough": "West",
      "postcode": "04205",
      "district": "Grünau-Nord",
      "districtId": "gruenau-Nord"
    },
    {
      "street": "Titaniaweg",
      "street_number": 3,
      "description": "Parkplatz",
      "borough": "West",
      "postcode": "04205",
      "district": "Grünau-Nord",
      "districtId": "gruenau-Nord"
    },
    {
      "street": "Uranusstraße",
      "street_number": "",
      "description": "zwischen Nr. 78 und 80 in Parktasche",
      "borough": "West",
      "postcode": "04205",
      "district": "Grünau-Nord",
      "districtId": "gruenau-Nord"
    },
    {
      "street": "Uranusstraße",
      "street_number": 50,
      "description": "Parkplatz WG Lipsia",
      "borough": "West",
      "postcode": "04205",
      "district": "Grünau-Nord",
      "districtId": "gruenau-Nord"
    },
    {
      "street": "Wegastraße",
      "street_number": 24,
      "description": "",
      "borough": "West",
      "postcode": "04205",
      "district": "Grünau-Nord",
      "districtId": "gruenau-Nord"
    },
    {
      "street": "Alte Burghausener Straße",
      "street_number": "",
      "description": "",
      "borough": "West",
      "postcode": "04205",
      "district": "Miltitz",
      "districtId": "miltitz"
    },
    {
      "street": "Am Bahnhof",
      "street_number": "",
      "description": "Höhe Freisinger Weg 21",
      "borough": "West",
      "postcode": "04205",
      "district": "Miltitz",
      "districtId": "miltitz"
    },
    {
      "street": "Auenweg",
      "street_number": "",
      "description": "ggü. Nr. 31 beim Stromkasten",
      "borough": "West",
      "postcode": "04205",
      "district": "Miltitz",
      "districtId": "miltitz"
    },
    {
      "street": "Lützner Straße",
      "street_number": "",
      "description": "Höhe Engertstraße",
      "borough": "Alt-West",
      "postcode": "04177",
      "district": "Lindenau",
      "districtId": "lindenau"
    },
    {
      "street": "Lützner Straße",
      "street_number": "",
      "description": "Höhe Zschochersche Straße",
      "borough": "Alt-West",
      "postcode": "04177",
      "district": "Lindenau",
      "districtId": "lindenau"
    },
    {
      "street": "Demmeringstraße",
      "street_number": 84,
      "description": "Höhe Schule",
      "borough": "Alt-West",
      "postcode": "04177",
      "district": "Altlindenau",
      "districtId": "altlindenau"
    },
    {
      "street": "Karl-Ferlemann-Straße",
      "street_number": "",
      "description": "Höhe Merseburger Straße/Tankstelle",
      "borough": "Alt-West",
      "postcode": "04177",
      "district": "Altlindenau",
      "districtId": "altlindenau"
    },
    {
      "street": "Merseburger Straße",
      "street_number": "",
      "description": "gegenüber Calvisiusstraße, Höhe Einkaufsmarkt",
      "borough": "Alt-West",
      "postcode": "04177",
      "district": "Altlindenau",
      "districtId": "altlindenau"
    },
    {
      "street": "Rietschelstraße",
      "street_number": "",
      "description": "Höhe Friesenstraße",
      "borough": "Alt-West",
      "postcode": "04177",
      "district": "Altlindenau",
      "districtId": "altlindenau"
    },
    {
      "street": "Beckerstraße",
      "street_number": 7,
      "description": "auf Morgensternstraße Ecke Beckerstraße",
      "borough": "Alt-West",
      "postcode": "04179",
      "district": "Neulindenau",
      "districtId": "neulindenau"
    },
    {
      "street": "Lützner Plan",
      "street_number": "",
      "description": "Demmeringstraße/Holbergstraße",
      "borough": "Alt-West",
      "postcode": "04179",
      "district": "Neulindenau",
      "districtId": "neulindenau"
    },
    {
      "street": "Lützner Straße",
      "street_number": 21,
      "description": "Ecke Thietmarstraße",
      "borough": "Alt-West",
      "postcode": "04179",
      "district": "Neulindenau",
      "districtId": "neulindenau"
    },
    {
      "street": "Radiusstraße",
      "street_number": "",
      "description": "zw. Gröpplerstraße u. Demmeringstraße",
      "borough": "Alt-West",
      "postcode": "04179",
      "district": "Neulindenau",
      "districtId": "neulindenau"
    },
    {
      "street": "Saalfelder Straße",
      "street_number": 73,
      "description": "Musterplatz",
      "borough": "Alt-West",
      "postcode": "04179",
      "district": "Neulindenau",
      "districtId": "neulindenau"
    },
    {
      "street": "Wiprechtstraße",
      "street_number": "",
      "description": "Höhe Lützner Straße, ggü. Nr. 9",
      "borough": "Alt-West",
      "postcode": "04179",
      "district": "Neulindenau",
      "districtId": "neulindenau"
    },
    {
      "street": "Franz-Flemming-Straße",
      "street_number": "",
      "description": "Sattelhofstraße neben Autohaus",
      "borough": "Alt-West",
      "postcode": "04179",
      "district": "Leutzsch",
      "districtId": "leutzsch"
    },
    {
      "street": "Hans-Driesch-Straße",
      "street_number": "",
      "description": "ggü. Laurentiuskirche",
      "borough": "Alt-West",
      "postcode": "04179",
      "district": "Leutzsch",
      "districtId": "leutzsch"
    },
    {
      "street": "Pfingstweide",
      "street_number": "",
      "description": "Höhe Rathenaustraße/Insel",
      "borough": "Alt-West",
      "postcode": "04179",
      "district": "Leutzsch",
      "districtId": "leutzsch"
    },
    {
      "street": "Pfingstweide",
      "street_number": 23,
      "description": "Höhe Heimteichstraße",
      "borough": "Alt-West",
      "postcode": "04179",
      "district": "Leutzsch",
      "districtId": "leutzsch"
    },
    {
      "street": "Philipp-Reis-Straße",
      "street_number": "",
      "description": "Höhe Heimteichstraße",
      "borough": "Alt-West",
      "postcode": "04179",
      "district": "Leutzsch",
      "districtId": "leutzsch"
    },
    {
      "street": "Rückmarsdorfer Straße",
      "street_number": 18,
      "description": "Höhe Junghanßstrasse",
      "borough": "Alt-West",
      "postcode": "04179",
      "district": "Leutzsch",
      "districtId": "leutzsch"
    },
    {
      "street": "Rathenaustraße",
      "street_number": "",
      "description": "Ende Rathenaustraße/Bahngelände",
      "borough": "Alt-West",
      "postcode": "04179",
      "district": "Leutzsch",
      "districtId": "leutzsch"
    },
    {
      "street": "Ammernplatz",
      "street_number": "",
      "description": "auf Teerosenweg/Sprikkenweg",
      "borough": "Alt-West",
      "postcode": "04178",
      "district": "Böhlitz-Ehrenberg",
      "districtId": "boehlitz-ehrenberg"
    },
    {
      "street": "An der Luppe",
      "street_number": "",
      "description": "auf Platz Robert-Koch-Straße/Am Sportpark",
      "borough": "Alt-West",
      "postcode": "04178",
      "district": "Böhlitz-Ehrenberg",
      "districtId": "boehlitz-ehrenberg"
    },
    {
      "street": "Feldlerchenweg",
      "street_number": "",
      "description": "Bielastraße",
      "borough": "Alt-West",
      "postcode": "04178",
      "district": "Böhlitz-Ehrenberg",
      "districtId": "boehlitz-ehrenberg"
    },
    {
      "street": "Frankenweg",
      "street_number": "",
      "description": "",
      "borough": "Alt-West",
      "postcode": "04178",
      "district": "Böhlitz-Ehrenberg",
      "districtId": "boehlitz-ehrenberg"
    },
    {
      "street": "Heinrich-Heine-Straße",
      "street_number": "",
      "description": "Parkplatz Einkaufsmarkt",
      "borough": "Alt-West",
      "postcode": "04178",
      "district": "Böhlitz-Ehrenberg",
      "districtId": "boehlitz-ehrenberg"
    },
    {
      "street": "Mitschurinring",
      "street_number": "",
      "description": "nahe Lützschenaer Straße",
      "borough": "Alt-West",
      "postcode": "04178",
      "district": "Böhlitz-Ehrenberg",
      "districtId": "boehlitz-ehrenberg"
    },
    {
      "street": "Pestalozzistraße",
      "street_number": "",
      "description": "Parkplatz am Einkaufsmarkt",
      "borough": "Alt-West",
      "postcode": "04178",
      "district": "Böhlitz-Ehrenberg",
      "districtId": "boehlitz-ehrenberg"
    },
    {
      "street": "Südstraße",
      "street_number": "",
      "description": "Ecke Waldmeisterweg",
      "borough": "Alt-West",
      "postcode": "04178",
      "district": "Böhlitz-Ehrenberg",
      "districtId": "boehlitz-ehrenberg"
    },
    {
      "street": "Brandensteinstraße",
      "street_number": "",
      "description": "Zschampert, zwischen An der",
      "borough": "Alt-West",
      "postcode": "04178",
      "district": "Burghausen-Rückmarsdorf",
      "districtId": "burghausen-rueckmarsdorf"
    },
    {
      "street": "Großer Marktweg",
      "street_number": 9,
      "description": "",
      "borough": "Alt-West",
      "postcode": "04178",
      "district": "Burghausen-Rückmarsdorf",
      "districtId": "burghausen-rueckmarsdorf"
    },
    {
      "street": "Merseburger Straße",
      "street_number": 259,
      "description": "ggü./Parkplatz Löwencenter",
      "borough": "Alt-West",
      "postcode": "04178",
      "district": "Burghausen-Rückmarsdorf",
      "districtId": "burghausen-rueckmarsdorf"
    },
    {
      "street": "Miltitzer Straße",
      "street_number": "",
      "description": "Ecke An den Linden",
      "borough": "Alt-West",
      "postcode": "04178",
      "district": "Burghausen-Rückmarsdorf",
      "districtId": "burghausen-rueckmarsdorf"
    },
    {
      "street": "Zum Bahnhof",
      "street_number": "",
      "description": "ggü. Nr. 20",
      "borough": "Alt-West",
      "postcode": "04178",
      "district": "Burghausen-Rückmarsdorf",
      "districtId": "burghausen-rueckmarsdorf"
    },
    {
      "street": "Blücherstraße",
      "street_number": 10,
      "description": "Höhe Dantestraße/Kaufhalle",
      "borough": "Nordwest",
      "postcode": "04159",
      "district": "Möckern",
      "districtId": "moeckern"
    },
    {
      "street": "Diderotstraße",
      "street_number": "",
      "description": "Höhe Uhrigstraße",
      "borough": "Nordwest",
      "postcode": "04159",
      "district": "Möckern",
      "districtId": "moeckern"
    },
    {
      "street": "Georg-Schumann-Straße",
      "street_number": 185,
      "description": "Höhe Huygensstraße",
      "borough": "Nordwest",
      "postcode": "04159",
      "district": "Möckern",
      "districtId": "moeckern"
    },
    {
      "street": "Glesiener Straße",
      "street_number": "",
      "description": "Höhe Papitzer Straße",
      "borough": "Nordwest",
      "postcode": "04159",
      "district": "Möckern",
      "districtId": "moeckern"
    },
    {
      "street": "Hans-Beimler-Straße",
      "street_number": "",
      "description": "Höhe Hochhaus/Kaufhalle",
      "borough": "Nordwest",
      "postcode": "04159",
      "district": "Möckern",
      "districtId": "moeckern"
    },
    {
      "street": "Hans-Beimler-Straße",
      "street_number": "",
      "description": "Annaberger Straße",
      "borough": "Nordwest",
      "postcode": "04159",
      "district": "Möckern",
      "districtId": "moeckern"
    },
    {
      "street": "Yorckstraße",
      "street_number": "",
      "description": "Höhe Erika-von-Brockdorff-Straße",
      "borough": "Nordwest",
      "postcode": "04159",
      "district": "Möckern",
      "districtId": "moeckern"
    },
    {
      "street": "Max-Liebermann-Straße",
      "street_number": "",
      "description": "Höhe Defoestraße",
      "borough": "Nordwest",
      "postcode": "04159",
      "district": "Möckern",
      "districtId": "moeckern"
    },
    {
      "street": "Georg-Schumann-Straße",
      "street_number": "",
      "description": "Wartenburgstraße/Einkaufsmarkt",
      "borough": "Nordwest",
      "postcode": "04159",
      "district": "Wahren",
      "districtId": "wahren"
    },
    {
      "street": "Linkelstraße",
      "street_number": 42,
      "description": "Höhe Stammerstraße",
      "borough": "Nordwest",
      "postcode": "04159",
      "district": "Wahren",
      "districtId": "wahren"
    },
    {
      "street": "Pater-Gordian-Straße",
      "street_number": 28,
      "description": "gegenüber Bahnhof Wahren",
      "borough": "Nordwest",
      "postcode": "04159",
      "district": "Wahren",
      "districtId": "wahren"
    },
    {
      "street": "Am Bildersaal",
      "street_number": "",
      "description": "An der Schäferei",
      "borough": "Nordwest",
      "postcode": "04159",
      "district": "Lützschena-Stahmeln",
      "districtId": "luetzschena-stahmeln"
    },
    {
      "street": "Am Eselshaus",
      "street_number": "",
      "description": "ggü. Nr. 22",
      "borough": "Nordwest",
      "postcode": "04159",
      "district": "Lützschena-Stahmeln",
      "districtId": "luetzschena-stahmeln"
    },
    {
      "street": "Bahnstraße",
      "street_number": "",
      "description": "Radefelder Weg",
      "borough": "Nordwest",
      "postcode": "04159",
      "district": "Lützschena-Stahmeln",
      "districtId": "luetzschena-stahmeln"
    },
    {
      "street": "Elsterberg",
      "street_number": "",
      "description": "schräg ggü. Nr. 6",
      "borough": "Nordwest",
      "postcode": "04159",
      "district": "Lützschena-Stahmeln",
      "districtId": "luetzschena-stahmeln"
    },
    {
      "street": "Stahmelner Straße",
      "street_number": 218,
      "description": "",
      "borough": "Nordwest",
      "postcode": "04159",
      "district": "Lützschena-Stahmeln",
      "districtId": "luetzschena-stahmeln"
    },
    {
      "street": "Windmühlenweg",
      "street_number": "",
      "description": "Höhe Narzissenweg",
      "borough": "Nordwest",
      "postcode": "04159",
      "district": "Lützschena-Stahmeln",
      "districtId": "luetzschena-stahmeln"
    },
    {
      "street": "Erich-Thiele-Straße",
      "street_number": "",
      "description": "Karl-Marx-Platz",
      "borough": "Nordwest",
      "postcode": "04158",
      "district": "Lindenthal",
      "districtId": "lindenthal"
    },
    {
      "street": "Gartenwinkel",
      "street_number": 2,
      "description": "Sportplatz",
      "borough": "Nordwest",
      "postcode": "04158",
      "district": "Lindenthal",
      "districtId": "lindenthal"
    },
    {
      "street": "Lange Trift",
      "street_number": "",
      "description": "Triftsiedlung",
      "borough": "Nordwest",
      "postcode": "04158",
      "district": "Lindenthal",
      "districtId": "lindenthal"
    },
    {
      "street": "Parkring",
      "street_number": "",
      "description": "Ecke Zur Alten Schmiede",
      "borough": "Nordwest",
      "postcode": "04158",
      "district": "Lindenthal",
      "districtId": "lindenthal"
    },
    {
      "street": "Wahrener Straße",
      "street_number": "",
      "description": "Weststraße",
      "borough": "Nordwest",
      "postcode": "04158",
      "district": "Lindenthal",
      "districtId": "lindenthal"
    },
    {
      "street": "Zur Lindenhöhe",
      "street_number": 1,
      "description": "ggü. An der Hufschmiede",
      "borough": "Nordwest",
      "postcode": "04158",
      "district": "Lindenthal",
      "districtId": "lindenthal"
    },
    {
      "street": "Blumenstraße",
      "street_number": "",
      "description": "Höhe Böhmestraße",
      "borough": "Nord",
      "postcode": "04155",
      "district": "Gohlis-Süd",
      "districtId": "gohlis-sued"
    },
    {
      "street": "Geibelstraße",
      "street_number": "",
      "description": "Höhe Eisenbahnbrücke, Blochmannstraße",
      "borough": "Nord",
      "postcode": "04155",
      "district": "Gohlis-Süd",
      "districtId": "gohlis-sued"
    },
    {
      "street": "Herloßsohnstraße",
      "street_number": "",
      "description": "neben Lagerhof der Stadtreinigung",
      "borough": "Nord",
      "postcode": "04155",
      "district": "Gohlis-Süd",
      "districtId": "gohlis-sued"
    },
    {
      "street": "Lützowstraße",
      "street_number": 1,
      "description": "Höhe Eisenacher Straße",
      "borough": "Nord",
      "postcode": "04155",
      "district": "Gohlis-Süd",
      "districtId": "gohlis-sued"
    },
    {
      "street": "Natonekstraße",
      "street_number": "",
      "description": "Höhe Georg-Schumann-Straße",
      "borough": "Nord",
      "postcode": "04155",
      "district": "Gohlis-Süd",
      "districtId": "gohlis-sued"
    },
    {
      "street": "Breitenfelder Straße",
      "street_number": "",
      "description": "Höhe Ludwig-Beck-Straße",
      "borough": "Nord",
      "postcode": "04157",
      "district": "Gohlis-Mitte",
      "districtId": "gohlis-mitte"
    },
    {
      "street": "Coppistraße",
      "street_number": "",
      "description": "Höhe Max-Metzger-Straße",
      "borough": "Nord",
      "postcode": "04157",
      "district": "Gohlis-Mitte",
      "districtId": "gohlis-mitte"
    },
    {
      "street": "Heinrich-Budde-Straße",
      "street_number": "",
      "description": "Höhe Adolph-Menzel-Straße",
      "borough": "Nord",
      "postcode": "04157",
      "district": "Gohlis-Mitte",
      "districtId": "gohlis-mitte"
    },
    {
      "street": "Michael-Kazmierczak-Straße",
      "street_number": "",
      "description": "Höhe Rudi-Opitz-Straße/Insel",
      "borough": "Nord",
      "postcode": "04157",
      "district": "Gohlis-Mitte",
      "districtId": "gohlis-mitte"
    },
    {
      "street": "Sasstraße",
      "street_number": "",
      "description": "Freiligrathplatz",
      "borough": "Nord",
      "postcode": "04157",
      "district": "Gohlis-Mitte",
      "districtId": "gohlis-mitte"
    },
    {
      "street": "Viertelsweg",
      "street_number": 4,
      "description": "Höhe Wilhelm-Plesse-Straße",
      "borough": "Nord",
      "postcode": "04157",
      "district": "Gohlis-Mitte",
      "districtId": "gohlis-mitte"
    },
    {
      "street": "Hans-Oster-Straße",
      "street_number": "",
      "description": "Höhe Landsberger Straße",
      "borough": "Nord",
      "postcode": "04157",
      "district": "Gohlis-Nord",
      "districtId": "gohlis-nord"
    },
    {
      "street": "Max-Liebermann-Straße",
      "street_number": 61,
      "description": "Einkaufsmarkt",
      "borough": "Nord",
      "postcode": "04157",
      "district": "Gohlis-Nord",
      "districtId": "gohlis-nord"
    },
    {
      "street": "Max-Liebermann-Straße",
      "street_number": 97,
      "description": "WSH (mit Altglasannahme)",
      "borough": "Nord",
      "postcode": "04157",
      "district": "Gohlis-Nord",
      "districtId": "gohlis-nord"
    },
    {
      "street": "Sylter Straße",
      "street_number": "",
      "description": "Tankstelle Höhe Jörgen-Schmidtchen-Weg/Parkplatz",
      "borough": "Nord",
      "postcode": "04157",
      "district": "Gohlis-Nord",
      "districtId": "gohlis-nord"
    },
    {
      "street": "Sylter Straße",
      "street_number": 29,
      "description": "Parkplatz",
      "borough": "Nord",
      "postcode": "04157",
      "district": "Gohlis-Nord",
      "districtId": "gohlis-nord"
    },
    {
      "street": "Viertelsweg",
      "street_number": 58,
      "description": "Höhe Landsberger Straße/Kaufhalle",
      "borough": "Nord",
      "postcode": "04157",
      "district": "Gohlis-Nord",
      "districtId": "gohlis-nord"
    },
    {
      "street": "Wangerooger Weg",
      "street_number": 5,
      "description": "Ecke Bremer Straße",
      "borough": "Nord",
      "postcode": "04157",
      "district": "Gohlis-Nord",
      "districtId": "gohlis-nord"
    },
    {
      "street": "Görlitzer Straße",
      "street_number": "",
      "description": "Höhe Schönefelder Straße",
      "borough": "Nord",
      "postcode": "04129",
      "district": "Eutritzsch",
      "districtId": "eutritzsch"
    },
    {
      "street": "Gottschallstraße",
      "street_number": "",
      "description": "Höhe Kleiststraße/Bretschneider-Park",
      "borough": "Nord",
      "postcode": "04129",
      "district": "Eutritzsch",
      "districtId": "eutritzsch"
    },
    {
      "street": "Hartzstraße",
      "street_number": "",
      "description": "Einkaufsmarkt",
      "borough": "Nord",
      "postcode": "04129",
      "district": "Eutritzsch",
      "districtId": "eutritzsch"
    },
    {
      "street": "Schönefelder Straße",
      "street_number": "",
      "description": "Höhe Theresienstraße",
      "borough": "Nord",
      "postcode": "04129",
      "district": "Eutritzsch",
      "districtId": "eutritzsch"
    },
    {
      "street": "Schönefelder Straße",
      "street_number": "",
      "description": "Höhe Delitzscher Straße",
      "borough": "Nord",
      "postcode": "04129",
      "district": "Eutritzsch",
      "districtId": "eutritzsch"
    },
    {
      "street": "Schiebestraße",
      "street_number": "",
      "description": "Bernburger Straße/Arthur-Hausmann-Straße",
      "borough": "Nord",
      "postcode": "04129",
      "district": "Eutritzsch",
      "districtId": "eutritzsch"
    },
    {
      "street": "Wittenberger Straße",
      "street_number": 29,
      "description": "Höhe Theresienstraße",
      "borough": "Nord",
      "postcode": "04129",
      "district": "Eutritzsch",
      "districtId": "eutritzsch"
    },
    {
      "street": "Zschortauer Straße",
      "street_number": "",
      "description": "Höhe Tellweg",
      "borough": "Nord",
      "postcode": "04129",
      "district": "Eutritzsch",
      "districtId": "eutritzsch"
    },
    {
      "street": "Am Ring",
      "street_number": "",
      "description": "am Dorfteich",
      "borough": "Nord",
      "postcode": "04356",
      "district": "Seehausen",
      "districtId": "seehausen"
    },
    {
      "street": "An der Hauptstraße",
      "street_number": "",
      "description": "Ecke Am Feld",
      "borough": "Nord",
      "postcode": "04356",
      "district": "Seehausen",
      "districtId": "seehausen"
    },
    {
      "street": "Gutsweg",
      "street_number": "",
      "description": "Ecke Töpferweg/Hohe Heide",
      "borough": "Nord",
      "postcode": "04356",
      "district": "Seehausen",
      "districtId": "seehausen"
    },
    {
      "street": "Seehausener Allee",
      "street_number": 35,
      "description": "ggü./Feuerwehr",
      "borough": "Nord",
      "postcode": "04356",
      "district": "Seehausen",
      "districtId": "seehausen"
    },
    {
      "street": "Nordweg",
      "street_number": "2-6",
      "description": "ggü.",
      "borough": "Nord",
      "postcode": "04158",
      "district": "Wiederitzsch",
      "districtId": "wiederitzsch"
    },
    {
      "street": "Südtangente",
      "street_number": "",
      "description": "Ecke Martinshöhe (Ost)",
      "borough": "Nord",
      "postcode": "04158",
      "district": "Wiederitzsch",
      "districtId": "wiederitzsch"
    },
    {
      "street": "Südtangente",
      "street_number": "",
      "description": "Birkenring",
      "borough": "Nord",
      "postcode": "04158",
      "district": "Wiederitzsch",
      "districtId": "wiederitzsch"
    },
    {
      "street": "Salzhandelsstraße",
      "street_number": "",
      "description": "Ecke Fichtesiedlung",
      "borough": "Nord",
      "postcode": "04158",
      "district": "Wiederitzsch",
      "districtId": "wiederitzsch"
    }
  ]